{
  "type": "FeatureCollection",
  "features": [
    {
      "type": "Feature",
      "properties": {
        "norad_id": 58701,
        "name": "TIANMU-1 16",
        "group": "weather",
        "lat": -20.856885446603773,
        "lon": -19.244774646444448,
        "alt_km": 499.36757598269196,
        "timestamp": "2025-12-08T17:43:04.536391+00:00",
        "meta_object_name": "TIANMU-1 16",
        "meta_object_id": "2024-004B",
        "meta_epoch": "2025-12-08T05:48:38.151936",
        "meta_mean_motion": 15.24340191,
        "meta_eccentricity": 0.00047256,
        "meta_inclination": 97.4568,
        "meta_ra_of_asc_node": 163.122,
        "meta_arg_of_pericenter": 315.8139,
        "meta_mean_anomaly": 44.2721,
        "meta_ephemeris_type": 0,
        "meta_classification_type": "U",
        "meta_norad_cat_id": 58701,
        "meta_element_set_no": 999,
        "meta_rev_at_epoch": 10666,
        "meta_bstar": 0.00038372398,
        "meta_mean_motion_dot": 9.323e-05,
        "meta_mean_motion_ddot": 0,
        "tle_line1": "1 58701U 24004B   25342.24210824  .00009323  00000+0  38372-3 0  9992",
        "tle_line2": "2 58701  97.4568 163.1220 0004725 315.8139  44.2721 15.24340191106664"
      },
      "geometry": {
        "type": "Point",
        "coordinates": [
          -19.244774646444448,
          -20.856885446603773
        ]
      }
    },
    {
      "type": "Feature",
      "properties": {
        "norad_id": 58702,
        "name": "TIANMU-1 17",
        "group": "weather",
        "lat": -73.48878601337674,
        "lon": -169.74122222895153,
        "alt_km": 497.6743192918466,
        "timestamp": "2025-12-08T17:43:04.536402+00:00",
        "meta_object_name": "TIANMU-1 17",
        "meta_object_id": "2024-004C",
        "meta_epoch": "2025-12-08T07:01:09.960960",
        "meta_mean_motion": 15.24385864,
        "meta_eccentricity": 0.00039344,
        "meta_inclination": 97.4602,
        "meta_ra_of_asc_node": 163.5798,
        "meta_arg_of_pericenter": 319.6674,
        "meta_mean_anomaly": 40.4271,
        "meta_ephemeris_type": 0,
        "meta_classification_type": "U",
        "meta_norad_cat_id": 58702,
        "meta_element_set_no": 999,
        "meta_rev_at_epoch": 10666,
        "meta_bstar": 0.00036661917,
        "meta_mean_motion_dot": 8.915e-05,
        "meta_mean_motion_ddot": 0,
        "tle_line1": "1 58702U 24004C   25342.29247640  .00008915  00000+0  36662-3 0  9990",
        "tle_line2": "2 58702  97.4602 163.5798 0003934 319.6674  40.4271 15.24385864106669"
      },
      "geometry": {
        "type": "Point",
        "coordinates": [
          -169.74122222895153,
          -73.48878601337674
        ]
      }
    },
    {
      "type": "Feature",
      "properties": {
        "norad_id": 58703,
        "name": "TIANMU-1 18",
        "group": "weather",
        "lat": 16.286724715177623,
        "lon": 162.02335390911128,
        "alt_km": 492.1536510728247,
        "timestamp": "2025-12-08T17:43:04.536412+00:00",
        "meta_object_name": "TIANMU-1 18",
        "meta_object_id": "2024-004D",
        "meta_epoch": "2025-12-08T06:37:05.356416",
        "meta_mean_motion": 15.2437484,
        "meta_eccentricity": 0.00033067,
        "meta_inclination": 97.4619,
        "meta_ra_of_asc_node": 163.7575,
        "meta_arg_of_pericenter": 320.9283,
        "meta_mean_anomaly": 39.1715,
        "meta_ephemeris_type": 0,
        "meta_classification_type": "U",
        "meta_norad_cat_id": 58703,
        "meta_element_set_no": 999,
        "meta_rev_at_epoch": 10666,
        "meta_bstar": 0.00036741745,
        "meta_mean_motion_dot": 8.931e-05,
        "meta_mean_motion_ddot": 0,
        "tle_line1": "1 58703U 24004D   25342.27575644  .00008931  00000+0  36742-3 0  9994",
        "tle_line2": "2 58703  97.4619 163.7575 0003306 320.9283  39.1715 15.24374840106667"
      },
      "geometry": {
        "type": "Point",
        "coordinates": [
          162.02335390911128,
          16.286724715177623
        ]
      }
    },
    {
      "type": "Feature",
      "properties": {
        "norad_id": 58990,
        "name": "INSAT-3DS",
        "group": "weather",
        "lat": 0.010262056596444717,
        "lon": 65.59319614288637,
        "alt_km": 35793.464409376415,
        "timestamp": "2025-12-08T17:43:04.536424+00:00",
        "meta_object_name": "INSAT-3DS",
        "meta_object_id": "2024-033A",
        "meta_epoch": "2025-12-08T03:43:16.860864",
        "meta_mean_motion": 1.0026964,
        "meta_eccentricity": 0.00016799,
        "meta_inclination": 0.0159,
        "meta_ra_of_asc_node": 82.2313,
        "meta_arg_of_pericenter": 181.5475,
        "meta_mean_anomaly": 311.2938,
        "meta_ephemeris_type": 0,
        "meta_classification_type": "U",
        "meta_norad_cat_id": 58990,
        "meta_element_set_no": 999,
        "meta_rev_at_epoch": 4515,
        "meta_bstar": 0,
        "meta_mean_motion_dot": -1.53e-06,
        "meta_mean_motion_ddot": 0,
        "tle_line1": "1 58990U 24033A   25342.15505626 -.00000153  00000+0  00000+0 0  9997",
        "tle_line2": "2 58990   0.0159  82.2313 0001679 181.5475 311.2938  1.00269640 45151"
      },
      "geometry": {
        "type": "Point",
        "coordinates": [
          65.59319614288637,
          0.010262056596444717
        ]
      }
    },
    {
      "type": "Feature",
      "properties": {
        "norad_id": 59051,
        "name": "METEOR-M2 4",
        "group": "weather",
        "lat": -37.98459502337642,
        "lon": 112.86220443955587,
        "alt_km": 828.2244849124372,
        "timestamp": "2025-12-08T17:43:04.536435+00:00",
        "meta_object_name": "METEOR-M2 4",
        "meta_object_id": "2024-039A",
        "meta_epoch": "2025-12-08T06:33:52.833888",
        "meta_mean_motion": 14.22400241,
        "meta_eccentricity": 0.00072916,
        "meta_inclination": 98.6762,
        "meta_ra_of_asc_node": 299.2526,
        "meta_arg_of_pericenter": 11.2616,
        "meta_mean_anomaly": 348.8724,
        "meta_ephemeris_type": 0,
        "meta_classification_type": "U",
        "meta_norad_cat_id": 59051,
        "meta_element_set_no": 999,
        "meta_rev_at_epoch": 9212,
        "meta_bstar": 6.4854585e-05,
        "meta_mean_motion_dot": 1.01e-06,
        "meta_mean_motion_ddot": 0,
        "tle_line1": "1 59051U 24039A   25342.27352817  .00000101  00000+0  64855-4 0  9992",
        "tle_line2": "2 59051  98.6762 299.2526 0007291  11.2616 348.8724 14.22400241 92121"
      },
      "geometry": {
        "type": "Point",
        "coordinates": [
          112.86220443955587,
          -37.98459502337642
        ]
      }
    },
    {
      "type": "Feature",
      "properties": {
        "norad_id": 60133,
        "name": "GOES 19",
        "group": "weather",
        "lat": -0.004820417098212129,
        "lon": -91.68701988853321,
        "alt_km": 35781.531684041714,
        "timestamp": "2025-12-08T17:43:04.536447+00:00",
        "meta_object_name": "GOES 19",
        "meta_object_id": "2024-119A",
        "meta_epoch": "2025-12-08T04:41:11.313312",
        "meta_mean_motion": 1.00271413,
        "meta_eccentricity": 0.00013528,
        "meta_inclination": 0.0119,
        "meta_ra_of_asc_node": 93.8694,
        "meta_arg_of_pericenter": 209.0539,
        "meta_mean_anomaly": 129.3967,
        "meta_ephemeris_type": 0,
        "meta_classification_type": "U",
        "meta_norad_cat_id": 60133,
        "meta_element_set_no": 999,
        "meta_rev_at_epoch": 504,
        "meta_bstar": 0,
        "meta_mean_motion_dot": -2.46e-06,
        "meta_mean_motion_ddot": 0,
        "tle_line1": "1 60133U 24119A   25342.19526983 -.00000246  00000+0  00000+0 0  9990",
        "tle_line2": "2 60133   0.0119  93.8694 0001352 209.0539 129.3967  1.00271413  5049"
      },
      "geometry": {
        "type": "Point",
        "coordinates": [
          -91.68701988853321,
          -0.004820417098212129
        ]
      }
    },
    {
      "type": "Feature",
      "properties": {
        "norad_id": 65815,
        "name": "FENGYUN 3H",
        "group": "weather",
        "lat": 45.95373337651744,
        "lon": 111.47880328785507,
        "alt_km": 821.3753545149157,
        "timestamp": "2025-12-08T17:43:04.536462+00:00",
        "meta_object_name": "FENGYUN 3H",
        "meta_object_id": "2025-219A",
        "meta_epoch": "2025-12-08T06:56:42.482112",
        "meta_mean_motion": 14.19902868,
        "meta_eccentricity": 6.088e-05,
        "meta_inclination": 98.6578,
        "meta_ra_of_asc_node": 281.9766,
        "meta_arg_of_pericenter": 82.1782,
        "meta_mean_anomaly": 277.9464,
        "meta_ephemeris_type": 0,
        "meta_classification_type": "U",
        "meta_norad_cat_id": 65815,
        "meta_element_set_no": 999,
        "meta_rev_at_epoch": 1029,
        "meta_bstar": 0.0001251055,
        "meta_mean_motion_dot": 2.22e-06,
        "meta_mean_motion_ddot": 0,
        "tle_line1": "1 65815U 25219A   25342.28938058  .00000222  00000+0  12511-3 0  9991",
        "tle_line2": "2 65815  98.6578 281.9766 0000608  82.1782 277.9464 14.19902868 10290"
      },
      "geometry": {
        "type": "Point",
        "coordinates": [
          111.47880328785507,
          45.95373337651744
        ]
      }
    }
  ]
}